[
  {
    "OBJECT_NAME": "STARLINK-30942",
    "OBJECT_ID": "23183E",
    "EPOCH": "2025-11-11T01:51:19.712736",
    "MEAN_MOTION": 15.02545476,
    "ECCENTRICITY": 0.000124,
    "INCLINATION": 43.0035,
    "RA_OF_ASC_NODE": 327.6802,
    "ARG_OF_PERICENTER": 272.0515,
    "MEAN_ANOMALY": 88.0185,
    "EPHEMERIS_TYPE": 0,
    "CLASSIFICATION_TYPE": "U",
    "NORAD_CAT_ID": 58441,
    "ELEMENT_SET_NO": 999,
    "REV_AT_EPOCH": 10887,
    "BSTAR": 9.3119e-06,
    "MEAN_MOTION_DOT": -7.8e-07,
    "MEAN_MOTION_DDOT": 0.0,
    "TLE_LINE1": "1 58441U 23183E   25315.07731149 -.00000078  00000+0  93119-5 0  9990",
    "TLE_LINE2": "2 58441  43.0035 327.6802 0001240 272.0515  88.0185 15.02545476108879",
    "COMMENT": "Grouped by shell and plane from TLE"
  },
  {
    "OBJECT_NAME": "STARLINK-30959",
    "OBJECT_ID": "23183F",
    "EPOCH": "2025-11-11T01:41:44.519424",
    "MEAN_MOTION": 15.0253551,
    "ECCENTRICITY": 0.0001047,
    "INCLINATION": 43.0034,
    "RA_OF_ASC_NODE": 327.6285,
    "ARG_OF_PERICENTER": 269.7242,
    "MEAN_ANOMALY": 90.348,
    "EPHEMERIS_TYPE": 0,
    "CLASSIFICATION_TYPE": "U",
    "NORAD_CAT_ID": 58442,
    "ELEMENT_SET_NO": 999,
    "REV_AT_EPOCH": 10887,
    "BSTAR": 1.7324000000000001e-06,
    "MEAN_MOTION_DOT": -1.8e-06,
    "MEAN_MOTION_DDOT": 0.0,
    "TLE_LINE1": "1 58442U 23183F   25315.07065416 -.00000180  00000+0  17324-5 0  9996",
    "TLE_LINE2": "2 58442  43.0034 327.6285 0001047 269.7242  90.3480 15.02535510108871",
    "COMMENT": "Grouped by shell and plane from TLE"
  },
  {
    "OBJECT_NAME": "STARLINK-30971",
    "OBJECT_ID": "23183G",
    "EPOCH": "2025-11-11T01:56:07.154304",
    "MEAN_MOTION": 15.02539688,
    "ECCENTRICITY": 0.0001111,
    "INCLINATION": 43.0034,
    "RA_OF_ASC_NODE": 327.6972,
    "ARG_OF_PERICENTER": 276.1591,
    "MEAN_ANOMALY": 83.9125,
    "EPHEMERIS_TYPE": 0,
    "CLASSIFICATION_TYPE": "U",
    "NORAD_CAT_ID": 58443,
    "ELEMENT_SET_NO": 999,
    "REV_AT_EPOCH": 10887,
    "BSTAR": 9.1495e-05,
    "MEAN_MOTION_DOT": 1.033e-05,
    "MEAN_MOTION_DDOT": 0.0,
    "TLE_LINE1": "1 58443U 23183G   25315.08063836  .00001033  00000+0  91495-4 0  9999",
    "TLE_LINE2": "2 58443  43.0034 327.6972 0001111 276.1591  83.9125 15.02539688108870",
    "COMMENT": "Grouped by shell and plane from TLE"
  },
  {
    "OBJECT_NAME": "STARLINK-30963",
    "OBJECT_ID": "23183H",
    "EPOCH": "2025-11-11T01:36:56.867904",
    "MEAN_MOTION": 15.02533487,
    "ECCENTRICITY": 0.0001358,
    "INCLINATION": 43.0052,
    "RA_OF_ASC_NODE": 327.6002,
    "ARG_OF_PERICENTER": 273.1839,
    "MEAN_ANOMALY": 86.8848,
    "EPHEMERIS_TYPE": 0,
    "CLASSIFICATION_TYPE": "U",
    "NORAD_CAT_ID": 58444,
    "ELEMENT_SET_NO": 999,
    "REV_AT_EPOCH": 10887,
    "BSTAR": 3.9052e-05,
    "MEAN_MOTION_DOT": 3.24e-06,
    "MEAN_MOTION_DDOT": 0.0,
    "TLE_LINE1": "1 58444U 23183H   25315.06732486  .00000324  00000+0  39052-4 0  9995",
    "TLE_LINE2": "2 58444  43.0052 327.6002 0001358 273.1839  86.8848 15.02533487108875",
    "COMMENT": "Grouped by shell and plane from TLE"
  },
  {
    "OBJECT_NAME": "STARLINK-30961",
    "OBJECT_ID": "23183J",
    "EPOCH": "2025-11-11T01:32:09.191328",
    "MEAN_MOTION": 15.02535685,
    "ECCENTRICITY": 0.0001362,
    "INCLINATION": 43.0059,
    "RA_OF_ASC_NODE": 327.5744,
    "ARG_OF_PERICENTER": 274.0121,
    "MEAN_ANOMALY": 86.0566,
    "EPHEMERIS_TYPE": 0,
    "CLASSIFICATION_TYPE": "U",
    "NORAD_CAT_ID": 58445,
    "ELEMENT_SET_NO": 999,
    "REV_AT_EPOCH": 10887,
    "BSTAR": 5.333900000000001e-06,
    "MEAN_MOTION_DOT": -1.32e-06,
    "MEAN_MOTION_DDOT": 0.0,
    "TLE_LINE1": "1 58445U 23183J   25315.06399527 -.00000132  00000+0  53339-5 0  9994",
    "TLE_LINE2": "2 58445  43.0059 327.5744 0001362 274.0121  86.0566 15.02535685108875",
    "COMMENT": "Grouped by shell and plane from TLE"
  },
  {
    "OBJECT_NAME": "STARLINK-30975",
    "OBJECT_ID": "23183K",
    "EPOCH": "2025-11-11T07:28:04.546272",
    "MEAN_MOTION": 15.0253764,
    "ECCENTRICITY": 9.42e-05,
    "INCLINATION": 43.0034,
    "RA_OF_ASC_NODE": 326.834,
    "ARG_OF_PERICENTER": 292.4853,
    "MEAN_ANOMALY": 67.589,
    "EPHEMERIS_TYPE": 0,
    "CLASSIFICATION_TYPE": "U",
    "NORAD_CAT_ID": 58446,
    "ELEMENT_SET_NO": 999,
    "REV_AT_EPOCH": 10892,
    "BSTAR": 0.00040597,
    "MEAN_MOTION_DOT": 5.285e-05,
    "MEAN_MOTION_DDOT": 0.0,
    "TLE_LINE1": "1 58446U 23183K   25315.31116373  .00005285  00000+0  40597-3 0  9992",
    "TLE_LINE2": "2 58446  43.0034 326.8340 0000942 292.4853  67.5890 15.02537640108925",
    "COMMENT": "Grouped by shell and plane from TLE"
  },
  {
    "OBJECT_NAME": "STARLINK-30976",
    "OBJECT_ID": "23183L",
    "EPOCH": "2025-11-11T07:40:41.290176",
    "MEAN_MOTION": 15.02534546,
    "ECCENTRICITY": 0.000117,
    "INCLINATION": 43.0038,
    "RA_OF_ASC_NODE": 326.0868,
    "ARG_OF_PERICENTER": 273.4032,
    "MEAN_ANOMALY": 86.6676,
    "EPHEMERIS_TYPE": 0,
    "CLASSIFICATION_TYPE": "U",
    "NORAD_CAT_ID": 58447,
    "ELEMENT_SET_NO": 999,
    "REV_AT_EPOCH": 10891,
    "BSTAR": 4.0862e-06,
    "MEAN_MOTION_DOT": -1.48e-06,
    "MEAN_MOTION_DDOT": 0.0,
    "TLE_LINE1": "1 58447U 23183L   25315.31992234 -.00000148  00000+0  40862-5 0  9992",
    "TLE_LINE2": "2 58447  43.0038 326.0868 0001170 273.4032  86.6676 15.02534546108914",
    "COMMENT": "Grouped by shell and plane from TLE"
  },
  {
    "OBJECT_NAME": "STARLINK-30926",
    "OBJECT_ID": "23183M",
    "EPOCH": "2025-11-11T07:35:52.229472",
    "MEAN_MOTION": 15.02539578,
    "ECCENTRICITY": 0.0001305,
    "INCLINATION": 43.0046,
    "RA_OF_ASC_NODE": 325.9902,
    "ARG_OF_PERICENTER": 270.2406,
    "MEAN_ANOMALY": 89.8287,
    "EPHEMERIS_TYPE": 0,
    "CLASSIFICATION_TYPE": "U",
    "NORAD_CAT_ID": 58448,
    "ELEMENT_SET_NO": 999,
    "REV_AT_EPOCH": 10891,
    "BSTAR": 8.2526e-05,
    "MEAN_MOTION_DOT": 9.11e-06,
    "MEAN_MOTION_DDOT": 0.0,
    "TLE_LINE1": "1 58448U 23183M   25315.31657673  .00000911  00000+0  82526-4 0  9997",
    "TLE_LINE2": "2 58448  43.0046 325.9902 0001305 270.2406  89.8287 15.02539578108914",
    "COMMENT": "Grouped by shell and plane from TLE"
  },
  {
    "OBJECT_NAME": "STARLINK-30946",
    "OBJECT_ID": "23183P",
    "EPOCH": "2025-11-11T07:16:52.416480",
    "MEAN_MOTION": 15.02533096,
    "ECCENTRICITY": 8.04e-05,
    "INCLINATION": 43.0031,
    "RA_OF_ASC_NODE": 326.7911,
    "ARG_OF_PERICENTER": 242.0522,
    "MEAN_ANOMALY": 118.0239,
    "EPHEMERIS_TYPE": 0,
    "CLASSIFICATION_TYPE": "U",
    "NORAD_CAT_ID": 58450,
    "ELEMENT_SET_NO": 999,
    "REV_AT_EPOCH": 10890,
    "BSTAR": 0.00015806999999999998,
    "MEAN_MOTION_DOT": 1.932e-05,
    "MEAN_MOTION_DDOT": 0.0,
    "TLE_LINE1": "1 58450U 23183P   25315.30338445  .00001932  00000+0  15807-3 0  9993",
    "TLE_LINE2": "2 58450  43.0031 326.7911 0000804 242.0522 118.0239 15.02533096108909",
    "COMMENT": "Grouped by shell and plane from TLE"
  },
  {
    "OBJECT_NAME": "STARLINK-30944",
    "OBJECT_ID": "23183Q",
    "EPOCH": "2025-11-11T01:27:21.505248",
    "MEAN_MOTION": 15.02532549,
    "ECCENTRICITY": 0.0001369,
    "INCLINATION": 43.005,
    "RA_OF_ASC_NODE": 327.5536,
    "ARG_OF_PERICENTER": 274.5363,
    "MEAN_ANOMALY": 85.5323,
    "EPHEMERIS_TYPE": 0,
    "CLASSIFICATION_TYPE": "U",
    "NORAD_CAT_ID": 58451,
    "ELEMENT_SET_NO": 999,
    "REV_AT_EPOCH": 10884,
    "BSTAR": 5.4476000000000005e-05,
    "MEAN_MOTION_DOT": 5.32e-06,
    "MEAN_MOTION_DDOT": 0.0,
    "TLE_LINE1": "1 58451U 23183Q   25315.06066557  .00000532  00000+0  54476-4 0  9990",
    "TLE_LINE2": "2 58451  43.0050 327.5536 0001369 274.5363  85.5323 15.02532549108840",
    "COMMENT": "Grouped by shell and plane from TLE"
  },
  {
    "OBJECT_NAME": "STARLINK-30928",
    "OBJECT_ID": "23183R",
    "EPOCH": "2025-11-11T02:58:17.297184",
    "MEAN_MOTION": 15.02534862,
    "ECCENTRICITY": 0.0001023,
    "INCLINATION": 43.0039,
    "RA_OF_ASC_NODE": 327.1652,
    "ARG_OF_PERICENTER": 264.3342,
    "MEAN_ANOMALY": 95.7384,
    "EPHEMERIS_TYPE": 0,
    "CLASSIFICATION_TYPE": "U",
    "NORAD_CAT_ID": 58452,
    "ELEMENT_SET_NO": 999,
    "REV_AT_EPOCH": 10888,
    "BSTAR": 0.00012056,
    "MEAN_MOTION_DOT": 1.425e-05,
    "MEAN_MOTION_DDOT": 0.0,
    "TLE_LINE1": "1 58452U 23183R   25315.12381131  .00001425  00000+0  12056-3 0  9995",
    "TLE_LINE2": "2 58452  43.0039 327.1652 0001023 264.3342  95.7384 15.02534862108888",
    "COMMENT": "Grouped by shell and plane from TLE"
  },
  {
    "OBJECT_NAME": "STARLINK-30957",
    "OBJECT_ID": "23183S",
    "EPOCH": "2025-11-11T07:26:27.286656",
    "MEAN_MOTION": 15.02541402,
    "ECCENTRICITY": 0.0001074,
    "INCLINATION": 43.0037,
    "RA_OF_ASC_NODE": 326.8362,
    "ARG_OF_PERICENTER": 276.327,
    "MEAN_ANOMALY": 83.745,
    "EPHEMERIS_TYPE": 0,
    "CLASSIFICATION_TYPE": "U",
    "NORAD_CAT_ID": 58453,
    "ELEMENT_SET_NO": 999,
    "REV_AT_EPOCH": 10890,
    "BSTAR": 0.00025425,
    "MEAN_MOTION_DOT": 3.233e-05,
    "MEAN_MOTION_DDOT": 0.0,
    "TLE_LINE1": "1 58453U 23183S   25315.31003804  .00003233  00000+0  25425-3 0  9998",
    "TLE_LINE2": "2 58453  43.0037 326.8362 0001074 276.3270  83.7450 15.02541402108902",
    "COMMENT": "Grouped by shell and plane from TLE"
  },
  {
    "OBJECT_NAME": "STARLINK-30966",
    "OBJECT_ID": "23183T",
    "EPOCH": "2025-11-11T02:34:29.209728",
    "MEAN_MOTION": 15.02533891,
    "ECCENTRICITY": 0.0001288,
    "INCLINATION": 43.004,
    "RA_OF_ASC_NODE": 327.8956,
    "ARG_OF_PERICENTER": 279.2691,
    "MEAN_ANOMALY": 80.8005,
    "EPHEMERIS_TYPE": 0,
    "CLASSIFICATION_TYPE": "U",
    "NORAD_CAT_ID": 58454,
    "ELEMENT_SET_NO": 999,
    "REV_AT_EPOCH": 10887,
    "BSTAR": 0.00011339000000000001,
    "MEAN_MOTION_DOT": 1.328e-05,
    "MEAN_MOTION_DDOT": 0.0,
    "TLE_LINE1": "1 58454U 23183T   25315.10728252  .00001328  00000+0  11339-3 0  9999",
    "TLE_LINE2": "2 58454  43.0040 327.8956 0001288 279.2691  80.8005 15.02533891108876",
    "COMMENT": "Grouped by shell and plane from TLE"
  }
]